KUIPER-00089            
1 64834U 25151U   25362.02566011 -.00000394  00000+0 -22619-4 0  9999
2 64834  51.9013 242.4837 0002150 104.1279 255.9922 14.79946135 24906
KUIPER-00090            
1 64835U 25151V   25362.05515982  .00004312  00000+0  64121-3 0  9999
2 64835  51.8967 234.4251 0004681 108.8705 251.2764 14.76661926 25016
KUIPER-00091            
1 64836U 25151W   25362.09596493  .00004265  00000+0  58821-3 0  9997
2 64836  51.8997 239.6812 0008558  61.4336 298.7487 14.79925391 24942
KUIPER-00092            
1 64837U 25151X   25362.08780168 -.00001653  00000+0 -18786-3 0  9997
2 64837  51.9012 247.2141 0003145  40.5003 319.6193 14.79922729 26051
KUIPER-00093            
1 64838U 25151Y   25362.08514552 -.00024531  00000+0 -31951-2 0  9998
2 64838  51.8999 249.7121 0002704  50.8775 309.2428 14.79999434 24804
KUIPER-00094            
1 64839U 25151Z   25362.06416304  .00010985  00000+0  78340-3 0  9993
2 64839  51.8886 231.8466 0004471  44.9311 315.2024 15.05001118 25057
KUIPER-00081            
1 65132U 25171A   25362.33335648 -.01036810  00000+0 -12589+0 0  9990
2 65132  51.9169 103.8277 0001255 349.8363 200.1994 14.86380777  5334
KUIPER-00088            
1 65133U 25171B   25361.62671719  .00003732  00000+0  55761-3 0  9991
2 65133  51.8983 124.7108 0007650 238.5221 121.4993 14.76770888 22119
