<?xml version="1.0" encoding="UTF-8"?>
<ndm xmlns:xsi="http://www.w3.org/2001/XMLSchema-instance" xsi:noNamespaceSchemaLocation="https://sanaregistry.org/r/ndmxml_unqualified/ndmxml-2.0.0-master-2.0.xsd">
<omm id="CCSDS_OMM_VERS" version="2.0">
<header><CREATION_DATE/><ORIGINATOR/></header><body><segment><metadata><OBJECT_NAME>KUIPER-00089</OBJECT_NAME><OBJECT_ID>2025-151U</OBJECT_ID><CENTER_NAME>EARTH</CENTER_NAME><REF_FRAME>TEME</REF_FRAME><TIME_SYSTEM>UTC</TIME_SYSTEM><MEAN_ELEMENT_THEORY>SGP4</MEAN_ELEMENT_THEORY></metadata><data><meanElements><EPOCH>2025-12-28T00:36:57.033504</EPOCH><MEAN_MOTION>14.79946135</MEAN_MOTION><ECCENTRICITY>.00021505</ECCENTRICITY><INCLINATION>51.9013</INCLINATION><RA_OF_ASC_NODE>242.4837</RA_OF_ASC_NODE><ARG_OF_PERICENTER>104.1279</ARG_OF_PERICENTER><MEAN_ANOMALY>255.9922</MEAN_ANOMALY></meanElements><tleParameters><EPHEMERIS_TYPE>0</EPHEMERIS_TYPE><CLASSIFICATION_TYPE>U</CLASSIFICATION_TYPE><NORAD_CAT_ID>64834</NORAD_CAT_ID><ELEMENT_SET_NO>999</ELEMENT_SET_NO><REV_AT_EPOCH>2490</REV_AT_EPOCH><BSTAR>-.22618746E-4</BSTAR><MEAN_MOTION_DOT>-.394E-5</MEAN_MOTION_DOT><MEAN_MOTION_DDOT>0</MEAN_MOTION_DDOT></tleParameters></data></segment></body></omm>
<omm id="CCSDS_OMM_VERS" version="2.0">
<header><CREATION_DATE/><ORIGINATOR/></header><body><segment><metadata><OBJECT_NAME>KUIPER-00090</OBJECT_NAME><OBJECT_ID>2025-151V</OBJECT_ID><CENTER_NAME>EARTH</CENTER_NAME><REF_FRAME>TEME</REF_FRAME><TIME_SYSTEM>UTC</TIME_SYSTEM><MEAN_ELEMENT_THEORY>SGP4</MEAN_ELEMENT_THEORY></metadata><data><meanElements><EPOCH>2025-12-28T01:19:25.808448</EPOCH><MEAN_MOTION>14.76661926</MEAN_MOTION><ECCENTRICITY>.00046818</ECCENTRICITY><INCLINATION>51.8967</INCLINATION><RA_OF_ASC_NODE>234.4251</RA_OF_ASC_NODE><ARG_OF_PERICENTER>108.8705</ARG_OF_PERICENTER><MEAN_ANOMALY>251.2764</MEAN_ANOMALY></meanElements><tleParameters><EPHEMERIS_TYPE>0</EPHEMERIS_TYPE><CLASSIFICATION_TYPE>U</CLASSIFICATION_TYPE><NORAD_CAT_ID>64835</NORAD_CAT_ID><ELEMENT_SET_NO>999</ELEMENT_SET_NO><REV_AT_EPOCH>2501</REV_AT_EPOCH><BSTAR>.64121094E-3</BSTAR><MEAN_MOTION_DOT>.4312E-4</MEAN_MOTION_DOT><MEAN_MOTION_DDOT>0</MEAN_MOTION_DDOT></tleParameters></data></segment></body></omm>
<omm id="CCSDS_OMM_VERS" version="2.0">
<header><CREATION_DATE/><ORIGINATOR/></header><body><segment><metadata><OBJECT_NAME>KUIPER-00091</OBJECT_NAME><OBJECT_ID>2025-151W</OBJECT_ID><CENTER_NAME>EARTH</CENTER_NAME><REF_FRAME>TEME</REF_FRAME><TIME_SYSTEM>UTC</TIME_SYSTEM><MEAN_ELEMENT_THEORY>SGP4</MEAN_ELEMENT_THEORY></metadata><data><meanElements><EPOCH>2025-12-28T02:18:11.369952</EPOCH><MEAN_MOTION>14.79925391</MEAN_MOTION><ECCENTRICITY>.0008558</ECCENTRICITY><INCLINATION>51.8997</INCLINATION><RA_OF_ASC_NODE>239.6812</RA_OF_ASC_NODE><ARG_OF_PERICENTER>61.4336</ARG_OF_PERICENTER><MEAN_ANOMALY>298.7487</MEAN_ANOMALY></meanElements><tleParameters><EPHEMERIS_TYPE>0</EPHEMERIS_TYPE><CLASSIFICATION_TYPE>U</CLASSIFICATION_TYPE><NORAD_CAT_ID>64836</NORAD_CAT_ID><ELEMENT_SET_NO>999</ELEMENT_SET_NO><REV_AT_EPOCH>2494</REV_AT_EPOCH><BSTAR>.58821314E-3</BSTAR><MEAN_MOTION_DOT>.4265E-4</MEAN_MOTION_DOT><MEAN_MOTION_DDOT>0</MEAN_MOTION_DDOT></tleParameters></data></segment></body></omm>
<omm id="CCSDS_OMM_VERS" version="2.0">
<header><CREATION_DATE/><ORIGINATOR/></header><body><segment><metadata><OBJECT_NAME>KUIPER-00092</OBJECT_NAME><OBJECT_ID>2025-151X</OBJECT_ID><CENTER_NAME>EARTH</CENTER_NAME><REF_FRAME>TEME</REF_FRAME><TIME_SYSTEM>UTC</TIME_SYSTEM><MEAN_ELEMENT_THEORY>SGP4</MEAN_ELEMENT_THEORY></metadata><data><meanElements><EPOCH>2025-12-28T02:06:26.065152</EPOCH><MEAN_MOTION>14.79922729</MEAN_MOTION><ECCENTRICITY>.00031453</ECCENTRICITY><INCLINATION>51.9012</INCLINATION><RA_OF_ASC_NODE>247.2141</RA_OF_ASC_NODE><ARG_OF_PERICENTER>40.5003</ARG_OF_PERICENTER><MEAN_ANOMALY>319.6193</MEAN_ANOMALY></meanElements><tleParameters><EPHEMERIS_TYPE>0</EPHEMERIS_TYPE><CLASSIFICATION_TYPE>U</CLASSIFICATION_TYPE><NORAD_CAT_ID>64837</NORAD_CAT_ID><ELEMENT_SET_NO>999</ELEMENT_SET_NO><REV_AT_EPOCH>2605</REV_AT_EPOCH><BSTAR>-.18785606E-3</BSTAR><MEAN_MOTION_DOT>-.1653E-4</MEAN_MOTION_DOT><MEAN_MOTION_DDOT>0</MEAN_MOTION_DDOT></tleParameters></data></segment></body></omm>
<omm id="CCSDS_OMM_VERS" version="2.0">
<header><CREATION_DATE/><ORIGINATOR/></header><body><segment><metadata><OBJECT_NAME>KUIPER-00093</OBJECT_NAME><OBJECT_ID>2025-151Y</OBJECT_ID><CENTER_NAME>EARTH</CENTER_NAME><REF_FRAME>TEME</REF_FRAME><TIME_SYSTEM>UTC</TIME_SYSTEM><MEAN_ELEMENT_THEORY>SGP4</MEAN_ELEMENT_THEORY></metadata><data><meanElements><EPOCH>2025-12-28T02:02:36.572928</EPOCH><MEAN_MOTION>14.79999434</MEAN_MOTION><ECCENTRICITY>.00027042</ECCENTRICITY><INCLINATION>51.8999</INCLINATION><RA_OF_ASC_NODE>249.7121</RA_OF_ASC_NODE><ARG_OF_PERICENTER>50.8775</ARG_OF_PERICENTER><MEAN_ANOMALY>309.2428</MEAN_ANOMALY></meanElements><tleParameters><EPHEMERIS_TYPE>0</EPHEMERIS_TYPE><CLASSIFICATION_TYPE>U</CLASSIFICATION_TYPE><NORAD_CAT_ID>64838</NORAD_CAT_ID><ELEMENT_SET_NO>999</ELEMENT_SET_NO><REV_AT_EPOCH>2480</REV_AT_EPOCH><BSTAR>-.31951394E-2</BSTAR><MEAN_MOTION_DOT>-.24531E-3</MEAN_MOTION_DOT><MEAN_MOTION_DDOT>0</MEAN_MOTION_DDOT></tleParameters></data></segment></body></omm>
<omm id="CCSDS_OMM_VERS" version="2.0">
<header><CREATION_DATE/><ORIGINATOR/></header><body><segment><metadata><OBJECT_NAME>KUIPER-00094</OBJECT_NAME><OBJECT_ID>2025-151Z</OBJECT_ID><CENTER_NAME>EARTH</CENTER_NAME><REF_FRAME>TEME</REF_FRAME><TIME_SYSTEM>UTC</TIME_SYSTEM><MEAN_ELEMENT_THEORY>SGP4</MEAN_ELEMENT_THEORY></metadata><data><meanElements><EPOCH>2025-12-28T01:32:23.686656</EPOCH><MEAN_MOTION>15.05001118</MEAN_MOTION><ECCENTRICITY>.00044718</ECCENTRICITY><INCLINATION>51.8886</INCLINATION><RA_OF_ASC_NODE>231.8466</RA_OF_ASC_NODE><ARG_OF_PERICENTER>44.9311</ARG_OF_PERICENTER><MEAN_ANOMALY>315.2024</MEAN_ANOMALY></meanElements><tleParameters><EPHEMERIS_TYPE>0</EPHEMERIS_TYPE><CLASSIFICATION_TYPE>U</CLASSIFICATION_TYPE><NORAD_CAT_ID>64839</NORAD_CAT_ID><ELEMENT_SET_NO>999</ELEMENT_SET_NO><REV_AT_EPOCH>2505</REV_AT_EPOCH><BSTAR>.78340437E-3</BSTAR><MEAN_MOTION_DOT>.10985E-3</MEAN_MOTION_DOT><MEAN_MOTION_DDOT>0</MEAN_MOTION_DDOT></tleParameters></data></segment></body></omm>
<omm id="CCSDS_OMM_VERS" version="2.0">
<header><CREATION_DATE/><ORIGINATOR/></header><body><segment><metadata><OBJECT_NAME>KUIPER-00081</OBJECT_NAME><OBJECT_ID>2025-171A</OBJECT_ID><CENTER_NAME>EARTH</CENTER_NAME><REF_FRAME>TEME</REF_FRAME><TIME_SYSTEM>UTC</TIME_SYSTEM><MEAN_ELEMENT_THEORY>SGP4</MEAN_ELEMENT_THEORY></metadata><data><meanElements><EPOCH>2025-12-28T08:00:01.999872</EPOCH><MEAN_MOTION>14.86380777</MEAN_MOTION><ECCENTRICITY>.0001255</ECCENTRICITY><INCLINATION>51.9169</INCLINATION><RA_OF_ASC_NODE>103.8277</RA_OF_ASC_NODE><ARG_OF_PERICENTER>349.8363</ARG_OF_PERICENTER><MEAN_ANOMALY>200.1994</MEAN_ANOMALY></meanElements><tleParameters><EPHEMERIS_TYPE>0</EPHEMERIS_TYPE><CLASSIFICATION_TYPE>U</CLASSIFICATION_TYPE><NORAD_CAT_ID>65132</NORAD_CAT_ID><ELEMENT_SET_NO>999</ELEMENT_SET_NO><REV_AT_EPOCH>533</REV_AT_EPOCH><BSTAR>-.12589191E+0</BSTAR><MEAN_MOTION_DOT>-.103681E-1</MEAN_MOTION_DOT><MEAN_MOTION_DDOT>0</MEAN_MOTION_DDOT></tleParameters></data></segment></body></omm>
<omm id="CCSDS_OMM_VERS" version="2.0">
<header><CREATION_DATE/><ORIGINATOR/></header><body><segment><metadata><OBJECT_NAME>KUIPER-00088</OBJECT_NAME><OBJECT_ID>2025-171B</OBJECT_ID><CENTER_NAME>EARTH</CENTER_NAME><REF_FRAME>TEME</REF_FRAME><TIME_SYSTEM>UTC</TIME_SYSTEM><MEAN_ELEMENT_THEORY>SGP4</MEAN_ELEMENT_THEORY></metadata><data><meanElements><EPOCH>2025-12-27T15:02:28.365216</EPOCH><MEAN_MOTION>14.76770888</MEAN_MOTION><ECCENTRICITY>.000765</ECCENTRICITY><INCLINATION>51.8983</INCLINATION><RA_OF_ASC_NODE>124.7108</RA_OF_ASC_NODE><ARG_OF_PERICENTER>238.5221</ARG_OF_PERICENTER><MEAN_ANOMALY>121.4993</MEAN_ANOMALY></meanElements><tleParameters><EPHEMERIS_TYPE>0</EPHEMERIS_TYPE><CLASSIFICATION_TYPE>U</CLASSIFICATION_TYPE><NORAD_CAT_ID>65133</NORAD_CAT_ID><ELEMENT_SET_NO>999</ELEMENT_SET_NO><REV_AT_EPOCH>2211</REV_AT_EPOCH><BSTAR>.55760994E-3</BSTAR><MEAN_MOTION_DOT>.3732E-4</MEAN_MOTION_DOT><MEAN_MOTION_DDOT>0</MEAN_MOTION_DDOT></tleParameters></data></segment></body></omm>

</ndm>
